[{"OBJECT_NAME":"ONEWEB-0199","OBJECT_ID":"2021-031AA","EPOCH":"2025-11-25T00:53:54.745152","MEAN_MOTION":13.14503,"ECCENTRICITY":0.0001904,"INCLINATION":87.8984,"RA_OF_ASC_NODE":330.3631,"ARG_OF_PERICENTER":94.0899,"MEAN_ANOMALY":266.0448,"EPHEMERIS_TYPE":0,"CLASSIFICATION_TYPE":"U","NORAD_CAT_ID":48234,"ELEMENT_SET_NO":999,"REV_AT_EPOCH":22144,"BSTAR":-0.00067648,"MEAN_MOTION_DOT":-2.38e-6,"MEAN_MOTION_DDOT":0},{"OBJECT_NAME":"ONEWEB-0203","OBJECT_ID":"2021-031AB","EPOCH":"2025-11-25T00:40:11.993376","MEAN_MOTION":13.14502017,"ECCENTRICITY":0.0002083,"INCLINATION":87.8983,"RA_OF_ASC_NODE":330.3659,"ARG_OF_PERICENTER":86.7163,"MEAN_ANOMALY":273.4205,"EPHEMERIS_TYPE":0,"CLASSIFICATION_TYPE":"U","NORAD_CAT_ID":48235,"ELEMENT_SET_NO":999,"REV_AT_EPOCH":22145,"BSTAR":-0.00041316,"MEAN_MOTION_DOT":-1.4e-6,"MEAN_MOTION_DDOT":0},{"OBJECT_NAME":"ONEWEB-0197","OBJECT_ID":"2021-031AC","EPOCH":"2025-11-25T00:03:28.789920","MEAN_MOTION":13.14503048,"ECCENTRICITY":0.0001519,"INCLINATION":87.8984,"RA_OF_ASC_NODE":330.3695,"ARG_OF_PERICENTER":94.5892,"MEAN_ANOMALY":265.5411,"EPHEMERIS_TYPE":0,"CLASSIFICATION_TYPE":"U","NORAD_CAT_ID":48236,"ELEMENT_SET_NO":999,"REV_AT_EPOCH":22136,"BSTAR":0.00078574,"MEAN_MOTION_DOT":3.04e-6,"MEAN_MOTION_DDOT":0},{"OBJECT_NAME":"ONEWEB-0194","OBJECT_ID":"2021-031AD","EPOCH":"2025-11-25T01:23:35.362752","MEAN_MOTION":13.14501849,"ECCENTRICITY":0.0002052,"INCLINATION":87.8985,"RA_OF_ASC_NODE":330.3753,"ARG_OF_PERICENTER":93.9378,"MEAN_ANOMALY":266.1986,"EPHEMERIS_TYPE":0,"CLASSIFICATION_TYPE":"U","NORAD_CAT_ID":48237,"ELEMENT_SET_NO":999,"REV_AT_EPOCH":22154,"BSTAR":3.4919e-5,"MEAN_MOTION_DOT":2.6e-7,"MEAN_MOTION_DDOT":0},{"OBJECT_NAME":"ONEWEB-0193","OBJECT_ID":"2021-031AE","EPOCH":"2025-11-25T01:46:26.383008","MEAN_MOTION":13.14503141,"ECCENTRICITY":0.0002146,"INCLINATION":87.8983,"RA_OF_ASC_NODE":330.3676,"ARG_OF_PERICENTER":99.039,"MEAN_ANOMALY":261.0983,"EPHEMERIS_TYPE":0,"CLASSIFICATION_TYPE":"U","NORAD_CAT_ID":48238,"ELEMENT_SET_NO":999,"REV_AT_EPOCH":22149,"BSTAR":0.00026592,"MEAN_MOTION_DOT":1.11e-6,"MEAN_MOTION_DDOT":0},{"OBJECT_NAME":"ONEWEB-0191","OBJECT_ID":"2021-031AF","EPOCH":"2025-11-25T02:02:25.406592","MEAN_MOTION":13.14502594,"ECCENTRICITY":0.0001809,"INCLINATION":87.8993,"RA_OF_ASC_NODE":330.3536,"ARG_OF_PERICENTER":89.6924,"MEAN_ANOMALY":270.4413,"EPHEMERIS_TYPE":0,"CLASSIFICATION_TYPE":"U","NORAD_CAT_ID":48239,"ELEMENT_SET_NO":999,"REV_AT_EPOCH":22135,"BSTAR":0.00039712,"MEAN_MOTION_DOT":1.6e-6,"MEAN_MOTION_DDOT":0},{"OBJECT_NAME":"ONEWEB-0195","OBJECT_ID":"2021-031AG","EPOCH":"2025-11-25T01:29:17.392704","MEAN_MOTION":13.14505294,"ECCENTRICITY":0.0001919,"INCLINATION":87.8997,"RA_OF_ASC_NODE":330.3543,"ARG_OF_PERICENTER":76.1937,"MEAN_ANOMALY":283.9406,"EPHEMERIS_TYPE":0,"CLASSIFICATION_TYPE":"U","NORAD_CAT_ID":48240,"ELEMENT_SET_NO":999,"REV_AT_EPOCH":22133,"BSTAR":0.00015432,"MEAN_MOTION_DOT":7.0e-7,"MEAN_MOTION_DDOT":0},{"OBJECT_NAME":"ONEWEB-0201","OBJECT_ID":"2021-031AH","EPOCH":"2025-11-25T01:12:22.101984","MEAN_MOTION":13.1450166,"ECCENTRICITY":0.0001557,"INCLINATION":87.8978,"RA_OF_ASC_NODE":330.399,"ARG_OF_PERICENTER":84.5144,"MEAN_ANOMALY":275.6164,"EPHEMERIS_TYPE":0,"CLASSIFICATION_TYPE":"U","NORAD_CAT_ID":48241,"ELEMENT_SET_NO":999,"REV_AT_EPOCH":22156,"BSTAR":-0.00032234,"MEAN_MOTION_DOT":-1.07e-6,"MEAN_MOTION_DDOT":0},{"OBJECT_NAME":"ONEWEB-0207","OBJECT_ID":"2021-031AJ","EPOCH":"2025-11-25T00:43:37.729056","MEAN_MOTION":13.14494901,"ECCENTRICITY":0.0001454,"INCLINATION":87.9003,"RA_OF_ASC_NODE":330.3607,"ARG_OF_PERICENTER":84.0023,"MEAN_ANOMALY":276.1273,"EPHEMERIS_TYPE":0,"CLASSIFICATION_TYPE":"U","NORAD_CAT_ID":48242,"ELEMENT_SET_NO":999,"REV_AT_EPOCH":22147,"BSTAR":-0.0030149,"MEAN_MOTION_DOT":-1.105e-5,"MEAN_MOTION_DDOT":0},{"OBJECT_NAME":"ONEWEB-0208","OBJECT_ID":"2021-031AK","EPOCH":"2025-11-25T02:06:59.401728","MEAN_MOTION":13.14502419,"ECCENTRICITY":0.0001861,"INCLINATION":87.8988,"RA_OF_ASC_NODE":330.3667,"ARG_OF_PERICENTER":81.5042,"MEAN_ANOMALY":278.6298,"EPHEMERIS_TYPE":0,"CLASSIFICATION_TYPE":"U","NORAD_CAT_ID":48243,"ELEMENT_SET_NO":999,"REV_AT_EPOCH":22149,"BSTAR":0.00026626,"MEAN_MOTION_DOT":1.12e-6,"MEAN_MOTION_DDOT":0},{"OBJECT_NAME":"ONEWEB-0200","OBJECT_ID":"2021-031AL","EPOCH":"2025-11-25T01:14:27.775104","MEAN_MOTION":13.1450244,"ECCENTRICITY":0.000182,"INCLINATION":87.8986,"RA_OF_ASC_NODE":330.3638,"ARG_OF_PERICENTER":86.2423,"MEAN_ANOMALY":273.8915,"EPHEMERIS_TYPE":0,"CLASSIFICATION_TYPE":"U","NORAD_CAT_ID":48244,"ELEMENT_SET_NO":999,"REV_AT_EPOCH":22141,"BSTAR":-0.00032405,"MEAN_MOTION_DOT":-1.07e-6,"MEAN_MOTION_DDOT":0},{"OBJECT_NAME":"ONEWEB-0217","OBJECT_ID":"2021-031AM","EPOCH":"2025-11-25T01:37:18.020352","MEAN_MOTION":13.14501818,"ECCENTRICITY":0.0001915,"INCLINATION":87.8996,"RA_OF_ASC_NODE":330.3533,"ARG_OF_PERICENTER":81.8259,"MEAN_ANOMALY":278.3088,"EPHEMERIS_TYPE":0,"CLASSIFICATION_TYPE":"U","NORAD_CAT_ID":48245,"ELEMENT_SET_NO":999,"REV_AT_EPOCH":22136,"BSTAR":0.00027532,"MEAN_MOTION_DOT":1.15e-6,"MEAN_MOTION_DDOT":0},{"OBJECT_NAME":"ONEWEB-0211","OBJECT_ID":"2021-045A","EPOCH":"2025-11-24T23:54:52.042752","MEAN_MOTION":13.16135,"ECCENTRICITY":0.0002245,"INCLINATION":87.8982,"RA_OF_ASC_NODE":299.8653,"ARG_OF_PERICENTER":76.3522,"MEAN_ANOMALY":283.7858,"EPHEMERIS_TYPE":0,"CLASSIFICATION_TYPE":"U","NORAD_CAT_ID":48767,"ELEMENT_SET_NO":999,"REV_AT_EPOCH":21758,"BSTAR":2.5648e-5,"MEAN_MOTION_DOT":2.3e-7,"MEAN_MOTION_DDOT":0},{"OBJECT_NAME":"ONEWEB-0223","OBJECT_ID":"2021-045B","EPOCH":"2025-11-24T21:40:43.434336","MEAN_MOTION":13.15546897,"ECCENTRICITY":0.0002336,"INCLINATION":87.8981,"RA_OF_ASC_NODE":299.9441,"ARG_OF_PERICENTER":84.4752,"MEAN_ANOMALY":275.6644,"EPHEMERIS_TYPE":0,"CLASSIFICATION_TYPE":"U","NORAD_CAT_ID":48768,"ELEMENT_SET_NO":999,"REV_AT_EPOCH":21754,"BSTAR":0.00042551,"MEAN_MOTION_DOT":1.73e-6,"MEAN_MOTION_DDOT":0},{"OBJECT_NAME":"ONEWEB-0230","OBJECT_ID":"2021-045C","EPOCH":"2025-11-24T22:49:11.076096","MEAN_MOTION":13.15548475,"ECCENTRICITY":0.0001875,"INCLINATION":87.8972,"RA_OF_ASC_NODE":299.9668,"ARG_OF_PERICENTER":88.0302,"MEAN_ANOMALY":272.1043,"EPHEMERIS_TYPE":0,"CLASSIFICATION_TYPE":"U","NORAD_CAT_ID":48769,"ELEMENT_SET_NO":999,"REV_AT_EPOCH":21781,"BSTAR":-0.0001792,"MEAN_MOTION_DOT":-5.5e-7,"MEAN_MOTION_DDOT":0},{"OBJECT_NAME":"ONEWEB-0237","OBJECT_ID":"2021-045D","EPOCH":"2025-11-24T22:33:12.508704","MEAN_MOTION":13.15548223,"ECCENTRICITY":0.0002202,"INCLINATION":87.8973,"RA_OF_ASC_NODE":299.9683,"ARG_OF_PERICENTER":84.9719,"MEAN_ANOMALY":275.1662,"EPHEMERIS_TYPE":0,"CLASSIFICATION_TYPE":"U","NORAD_CAT_ID":48770,"ELEMENT_SET_NO":999,"REV_AT_EPOCH":21753,"BSTAR":0.00010434,"MEAN_MOTION_DOT":5.2e-7,"MEAN_MOTION_DDOT":0},{"OBJECT_NAME":"ONEWEB-0235","OBJECT_ID":"2021-045E","EPOCH":"2025-11-24T23:46:13.418976","MEAN_MOTION":13.15546381,"ECCENTRICITY":0.0002384,"INCLINATION":87.8972,"RA_OF_ASC_NODE":299.9283,"ARG_OF_PERICENTER":85.0051,"MEAN_ANOMALY":275.1352,"EPHEMERIS_TYPE":0,"CLASSIFICATION_TYPE":"U","NORAD_CAT_ID":48771,"ELEMENT_SET_NO":999,"REV_AT_EPOCH":21753,"BSTAR":0.00013772,"MEAN_MOTION_DOT":6.5e-7,"MEAN_MOTION_DDOT":0},{"OBJECT_NAME":"ONEWEB-0242","OBJECT_ID":"2021-045F","EPOCH":"2025-11-24T21:47:34.960128","MEAN_MOTION":13.15548122,"ECCENTRICITY":0.0002034,"INCLINATION":87.8983,"RA_OF_ASC_NODE":299.9374,"ARG_OF_PERICENTER":88.1459,"MEAN_ANOMALY":271.9905,"EPHEMERIS_TYPE":0,"CLASSIFICATION_TYPE":"U","NORAD_CAT_ID":48772,"ELEMENT_SET_NO":999,"REV_AT_EPOCH":21756,"BSTAR":0.00064547,"MEAN_MOTION_DOT":2.56e-6,"MEAN_MOTION_DDOT":0},{"OBJECT_NAME":"ONEWEB-0241","OBJECT_ID":"2021-045G","EPOCH":"2025-11-24T21:29:17.764800","MEAN_MOTION":13.15548247,"ECCENTRICITY":0.000224,"INCLINATION":87.8973,"RA_OF_ASC_NODE":299.9792,"ARG_OF_PERICENTER":79.0915,"MEAN_ANOMALY":281.0467,"EPHEMERIS_TYPE":0,"CLASSIFICATION_TYPE":"U","NORAD_CAT_ID":48773,"ELEMENT_SET_NO":999,"REV_AT_EPOCH":21747,"BSTAR":1.2818e-5,"MEAN_MOTION_DOT":1.8e-7,"MEAN_MOTION_DDOT":0},{"OBJECT_NAME":"ONEWEB-0243","OBJECT_ID":"2021-045H","EPOCH":"2025-11-25T00:04:28.564032","MEAN_MOTION":13.15546708,"ECCENTRICITY":0.0002288,"INCLINATION":87.8976,"RA_OF_ASC_NODE":299.9666,"ARG_OF_PERICENTER":88.8998,"MEAN_ANOMALY":271.2394,"EPHEMERIS_TYPE":0,"CLASSIFICATION_TYPE":"U","NORAD_CAT_ID":48774,"ELEMENT_SET_NO":999,"REV_AT_EPOCH":21751,"BSTAR":-7.1101e-6,"MEAN_MOTION_DOT":1.0e-7,"MEAN_MOTION_DDOT":0},{"OBJECT_NAME":"ONEWEB-0222","OBJECT_ID":"2021-045J","EPOCH":"2025-11-24T21:51:00.798624","MEAN_MOTION":13.15547606,"ECCENTRICITY":0.0002093,"INCLINATION":87.8986,"RA_OF_ASC_NODE":299.9371,"ARG_OF_PERICENTER":86.4127,"MEAN_ANOMALY":273.7242,"EPHEMERIS_TYPE":0,"CLASSIFICATION_TYPE":"U","NORAD_CAT_ID":48775,"ELEMENT_SET_NO":999,"REV_AT_EPOCH":21754,"BSTAR":0.0013993,"MEAN_MOTION_DOT":5.4e-6,"MEAN_MOTION_DDOT":0},{"OBJECT_NAME":"ONEWEB-0244","OBJECT_ID":"2021-045K","EPOCH":"2025-11-24T22:28:39.137376","MEAN_MOTION":13.15548377,"ECCENTRICITY":0.0002077,"INCLINATION":87.8988,"RA_OF_ASC_NODE":299.9184,"ARG_OF_PERICENTER":84.2659,"MEAN_ANOMALY":275.8708,"EPHEMERIS_TYPE":0,"CLASSIFICATION_TYPE":"U","NORAD_CAT_ID":48776,"ELEMENT_SET_NO":999,"REV_AT_EPOCH":21811,"BSTAR":0.00016741,"MEAN_MOTION_DOT":7.6e-7,"MEAN_MOTION_DDOT":0},{"OBJECT_NAME":"ONEWEB-0247","OBJECT_ID":"2021-045L","EPOCH":"2025-11-25T00:13:36.416064","MEAN_MOTION":13.15546703,"ECCENTRICITY":0.0002871,"INCLINATION":87.8968,"RA_OF_ASC_NODE":299.9638,"ARG_OF_PERICENTER":89.8843,"MEAN_ANOMALY":270.2617,"EPHEMERIS_TYPE":0,"CLASSIFICATION_TYPE":"U","NORAD_CAT_ID":48777,"ELEMENT_SET_NO":999,"REV_AT_EPOCH":21756,"BSTAR":-0.00010953,"MEAN_MOTION_DOT":-2.8e-7,"MEAN_MOTION_DDOT":0},{"OBJECT_NAME":"ONEWEB-0245","OBJECT_ID":"2021-045M","EPOCH":"2025-11-24T22:17:14.166816","MEAN_MOTION":13.15547837,"ECCENTRICITY":0.0002047,"INCLINATION":87.8972,"RA_OF_ASC_NODE":299.944,"ARG_OF_PERICENTER":77.8318,"MEAN_ANOMALY":282.3041,"EPHEMERIS_TYPE":0,"CLASSIFICATION_TYPE":"U","NORAD_CAT_ID":48778,"ELEMENT_SET_NO":999,"REV_AT_EPOCH":21752,"BSTAR":0.0002759,"MEAN_MOTION_DOT":1.17e-6,"MEAN_MOTION_DDOT":0}]
